FALCONSAT-10            
1 58291U 23174AM  26068.70247784  .00006748  00000+0  25969-3 0  9991
2 58291  97.3865 145.7938 0008932 169.5942 190.5483 15.26670596129582
STARLINK-32379          
1 61851U 24202G   26068.45941736 -.00000713  00000+0 -16398-4 0  9995
2 61851  42.9987 227.9359 0000686 260.6359  99.4415 15.27570727 75423
